id,code,name_en,name_zh,address_en,address_zh,latitude,longitude,phone,email,height_limit,facility_no,district_id,priority,record_id,region,district
00000000-0000-0000-000000000001,P851,EDGE,EDGE,"30-34 Kwai Wing Road, Kwai Chung",葵涌葵榮路30-34號,22.366886300596494,114.13419708518984,9856-0851,website_g3@wilsonparking.com.hk,,7999851.0,49,104.0,1,New Territories,Kwai Tsing
00000000-0000-0000-000000000007,P106,Tin Hau Car Park,天后停車場,"Lau Sin Street & Electric Road, Tin Hau",天后留仙街與電氣道,22.2830233,114.1916625,2566-3419,,,1413434.0,20,107.0,7,Hong Kong,Wan Chai
00000000-0000-0000-000000000008,P10,Tsuen Wan Car Park,荃灣停車場,"174-208 Castle Peak Road, Tsuen Wan",荃灣青山公路174-208號,22.373,114.1187254,2611-9148,,,1413459.0,62,108.0,8,Hong Kong,Tsuen Wan
00000000-0000-0000-00000000000d,P848,Centre Parc,常悅道11號,"11 Sheung Yuet Road, Kowloon Bay",九龍灣常悅道11號,22.3221934,114.208289,6113-5848,,,1413210.0,27,113.0,13,Kowloon,Kwun Tong
00000000-0000-0000-00000000000e,P707(I),Chelsea Heights Phase I,卓爾居1期,"1 Shek Pai Tau Path, Tuen Mun",屯門石排頭徑1號,22.40159915915589,113.9746859322521,9018-9707,,,1412329.0,63,114.0,14,New Territories,Tuen Mun
00000000-0000-0000-00000000000f,P72(S4),Mei Foo Sun Chuen Stage 4,美孚新邨4期,"Stage 4 Mei Foo Sun Chuen, Lai Chi Kok",荔枝角美孚新邨4期,22.336438791241047,114.1424192750436,6012-1072,,1.9,1412592.0,30,115.0,15,Kowloon,Lai Chi Kok
00000000-0000-0000-000000000010,P72(S7),Mei Foo Sun Chuen Stage 7,美孚新邨7期,"Stage 7, Mei Foo Sun Chuen, Lai Chi Kok",荔枝角美孚新邨7期,22.338036519078337,114.13804593324484,9229-6642,,,1412642.0,30,116.0,16,Kowloon,Sham Shui Po
00000000-0000-0000-000000000011,P845,Nan Fung Commercial Centre,南豐商業中心,"18 Lam Lok Street, Kowloon Bay",九龍灣臨樂街18號,22.3232263,114.2075936,9664-3845,,,1412386.0,27,117.0,17,Kowloon,Kwun Tong
00000000-0000-0000-00000000001b,P837,New Town Mansion,新都大廈,"2 Tuen Lee Street, Tuen Mun",屯門屯利街2號,22.39116869524617,113.97817432789805,6017-9837,,,1410711.0,63,127.0,27,Hong Kong,Tuen Mun
00000000-0000-0000-00000000001e,P833,No. 8 Observatory Road,天文臺道8號,"8 Observatory Road, Tsim Sha Tsui",尖沙咀天文臺道8號,22.301007008324667,114.17574852614403,9319-0833,,,,40,129.0,30,Kowloon,Tsim Sha Tsui
00000000-0000-0000-00000000001f,P834,Wang Kwong Road,宏光道,"Wang Kwong Road, Kowloon Bay",九龍灣宏光道,22.3285047,114.2056663,9229-6642,,,1412444.0,27,130.0,31,Kowloon,Kowloon Bay
00000000-0000-0000-000000000020,P830,KC100,KC100,"100 Kwai Cheong Road, Kwai Chung",葵涌葵昌路100號,22.3611551,114.1325205,6464-0830,website_g3@wilsonparking.com.hk,,7999830.0,49,131.0,32,New Territories,Kwai Tsing
00000000-0000-0000-000000000024,P829,Brighton Place,海晴軒," 23 Shiu Wo Street, Tsuen Wan",荃灣兆和街23號,22.37215336437068,114.11748692302706,9455-3829,website_g3@wilsonparking.com.hk,,7999829.0,62,133.0,36,New Territories,Tsuen Wan
00000000-0000-0000-000000000029,P826,Wing Lung Street,永隆街,"13-19 Wing Lung Street, Cheung Sha Wan",長沙灣永隆街13-19號,22.338117,114.1586217,9171-4826,,,7999826.0,22,136.0,41,Kowloon,Sham Shui Po
00000000-0000-0000-00000000002a,P825,Tsuen King Circuit,荃景圍,"Tsuen King Circuit, Tsuen Wan",荃灣荃景圍,22.379982281127624,114.10600170402527,9015-0825,,,7999825.0,62,137.0,42,New Territories,Tsuen Wan
00000000-0000-0000-00000000002c,P823,Wu Shan Road,湖山路,"Wu Shan Road, Tuen Mun",屯門湖山路,22.375145840907408,113.96926268844608,9310-1823,,,1412717.0,63,138.0,44,New Territories,Tuen Mun
00000000-0000-0000-00000000002e,P821,The ONE,The ONE,"100 Nathan Road, Tsim Sha Tsui",尖沙咀彌敦道100號,22.299714,114.17282,9850-2821,edithchow@wilsonparking.com.hk,,1412790.0,40,139.0,46,Kowloon,Tsim Sha Tsui
00000000-0000-0000-000000000063,P757,Tsan Yung Mansion,曾榕大廈,"70 Waterloo Road, Mongkok",旺角窩打老道70號,22.317073424825356,114.17488396167757,9687-0757,,,7999757.0,32,187.0,99,Kowloon,Ho Man Tin
00000000-0000-0000-000000000064,P752,Hoi Wah Road,海華路,"Hoi Wah Road, Tuen Mun",屯門海華路,22.379739522297108,113.97052645683289,9467-8494,,,,63,188.0,100,New Territories,Tuen Mun
00000000-0000-0000-000000000065,P751,Capital Building,金必多大廈,"85-95 Un Chau Street, Sham Shui Po",深水埗元州街85-95號,22.33274817268661,114.1626651585102,9229-6642,,,1412691.0,37,189.0,101,Kowloon,Sham Shui Po
00000000-0000-0000-000000000068,P743,South Lane,南里,"11-17A South Lane, Western District",西區南里11-17A,22.285364362921268,114.134711176157,9869-7743,,,7999743.0,15,192.0,104,Hong Kong,Shek Tong Tsui
00000000-0000-0000-000000000069,P741,Venice Garden,威尼斯花園,"1 Po Wing Road, Sheung Shui",上水保榮路1號,22.497959387168255,114.127416908741,9228-0741,,,7999741.0,56,193.0,105,New Territories,North
00000000-0000-0000-00000000006b,P739,Ho Fai Garden,豪輝花園,"218-224 Sai Lau Kok Road, Tsuen Wan",荃灣西樓角路218-224號,22.370744,114.1211364,9229-6642,,,1414044.0,62,194.0,107,New Territories,Tsuen Wan
00000000-0000-0000-00000000006c,P735,Bellagio,碧堤半島,"Level 1, Bellagio, 33 Castle Peak Road, Sham Tseng",深井青山公路33號碧堤半島L1,22.367320672030896,114.06098127365112,6113-8735,,,1411206.0,54,195.0,108,New Territories,Sham Tseng
00000000-0000-0000-00000000006d,P737,East Town Building,東城大廈,"41 Lockhart Road, Wan Chai",灣仔駱克道41號,22.278627796530348,114.17063400149344,9223-6737,,,1412626.0,21,196.0,109,Hong Kong,Wan Chai
00000000-0000-0000-00000000006f,P736,AEON Lai Chi Kok Store,AEON 荔枝角店,"1/F & 2/F AquaMarine, 8 Sham Shing Road, Lai Chi Kok",荔枝角深盛路8號碧海藍天1樓及2樓,22.33315878150711,114.14855539798737,9861-7736,,2.4,1412584.0,30,198.0,111,Kowloon,Sham Shui Po
00000000-0000-0000-000000000074,P727,Two Sky Parc,Two Sky Parc,"51 Hung To Road, Kwun Tong",觀塘鴻圖道51號,22.31126209352486,114.2217354476452,9134-0727,,,1412394.0,29,202.0,116,Kowloon,Kwun Tong
00000000-0000-0000-000000000077,P718,Kailey Industrial Centre,啓力工業中心,"12 Fung Yip Street, Chai Wan",柴灣豐業街12號,22.267033962619596,114.24442291259766,9163-1718,,,7999718.0,6,203.0,119,Hong Kong,Eastern
00000000-0000-0000-000000000079,P708,Eightland Gardens,八號花園,"2 On Chee Road, Tai Po",大埔安慈路2號,22.45240054452185,114.16687555611134,6017-9744,,,1411172.0,57,204.0,121,New Territories,Tai Po
00000000-0000-0000-00000000007a,P707(II),Chelsea Heights Phase II,卓爾居2期,"1 Shek Pai Tau Path, Tuen Mun",屯門石排頭徑1號,22.400442582486733,113.97438883781432,9018-9707,,,1412337.0,63,205.0,122,New Territories,Tuen Mun
00000000-0000-0000-00000000007d,P71,Chi Fu Landmark,置富南區廣場,"Chi Fu Road, Pok Fu Lam",薄扶林置富道,22.25798484266325,114.13907378911972,6113-9690,,,1410166.0,10,208.0,125,Hong Kong,Pok Fu Lam
00000000-0000-0000-000000000080,P517,Western Wholesale Food Market ,西區副食品批發市場,"8 Fung Mat Road, Sai Ying Pun",西營盤豐物道8號,22.2884114403856,114.13667857646942,9135-0517 & 9857-0517 ,,,,13,209.0,128,Hong Kong,Shek Tong Tsui
00000000-0000-0000-0000000000a4,P588,Kwai Fong Terrace,葵芳閣,"15 Kwai Yi Road, Kwai Chung",葵涌葵義路15號,22.356216681708386,114.12838652729988,9381-0132,calvinchan@wilsonparking.com.hk,,1411032.0,50,243.0,164,New Territories,Kwai Tsing
00000000-0000-0000-0000000000a5,P593,Grand Waterfront,翔龍灣,"38 San Ma Tau Street, To Kwa Wan",土瓜灣新碼頭街38號,22.318730925021367,114.19393301010132,9312-1980,,,,39,244.0,165,Kowloon,Ma Tau Kok
00000000-0000-0000-0000000000a6,P595,Shanghai Industrial Investment Building,上海實業大廈,"48-66 Hennessy Road, Wan Chai",灣仔軒尼詩道48-66號,22.2773973468939,114.17102627456188,9843-6364,,,1410794.0,21,245.0,166,Hong Kong,Wan Chai
00000000-0000-0000-0000000000a7,P596,Hong Kong Plaza,香港商業中心,"188 Connaught Road West, Sai Ying Pun",西營盤干諾道西188號,22.2871060013613,114.1363513469696,9172-3596,,,1411941.0,13,246.0,167,Hong Kong,Shek Tong Tsui
00000000-0000-0000-0000000000a8,P599E,Wonderland Villas (Eastern),華景山莊 (東),"9 Wah King Hill Road, Lai King",荔景華景山道9號,22.3554904,114.1369974,5130-4199,,,,51,247.0,168,New Territories,Kwai Tsing
00000000-0000-0000-0000000000a9,P600,Blossom Garden,寶怡花園,"11 Leung Tak Street, Tuen Mun",屯門良德街11號,22.407666104057675,113.9686354994774,9018-0934,,,1412014.0,63,248.0,169,New Territories,Tuen Mun
00000000-0000-0000-0000000000ac,P605,HSBC Centre,滙豐中心,"1 Shum Mong Road, Tai Kok Tsui",大角咀深旺道1號,22.319356204413115,114.16067898273468,6407-1265,,,1412188.0,38,251.0,172,Kowloon,Tai Kok Tsui
00000000-0000-0000-0000000000ad,P606,Chinachem Century Tower,華懋世紀廣場,"178 Gloucester Road, Wan Chai",灣仔告士打道178號,22.2799966047368,114.17858138680458,9133-2606,website_g3@wilsonparking.com.hk,,7999606.0,21,252.0,173,Hong Kong,Wan Chai
00000000-0000-0000-0000000000ae,P608,Hilton Plaza,希爾頓中心,"3-9 Sha Tin Central Street, Shatin",沙田正街3-9號,22.3801619,114.187066,9450-0608,,,1411099.0,55,253.0,174,Hong Kong,Sha Tin Central
00000000-0000-0000-0000000000af,P609,Wealthy Garden,富麗花園,"1-27 Tsuen Kwai Street, Tsuen Wan",荃灣荃貴街1-27號,22.369315526095523,114.12235625088216,9229-6642 ,,,1412428.0,62,254.0,175,New Territories,Tsuen Wan
00000000-0000-0000-0000000000b0,P610,Lun Fung Court,龍豐閣,"363 Des Voeux Road West, Sai Ying Pun",西營盤德輔道西363號,22.28698687323877,114.1364049911499,9172-3596,calvinchan@wilsonparking.com.hk,,1412808.0,13,255.0,176,Hong Kong,Shek Tong Tsui
00000000-0000-0000-0000000000b2,P616,Tsuen Kam Centre,荃錦中心,"328-338 Castle Peak Road, Tsuen Wan",荃灣青山公路328-338 號,22.37426006133371,114.11600477993488,9136-9806,,,1412063.0,62,256.0,178,New Territories,Tsuen Wan
00000000-0000-0000-0000000000b3,P617,Tsuen Wan Centre ,荃灣中心,"87-105 Tsuen King Circuit, Tsuen Wan",荃灣荃景圍 87-105 號,22.378498183176056,114.1089914739132,9176-6617,,,1412105.0,62,257.0,179,New Territories,Tsuen Wan
00000000-0000-0000-0000000000b4,P620,Botania Villa,綠怡居 ,"138 Fuk Hang Tsuen Road, Tuen Mun",屯門福亨村道138號,22.4184139,113.9852332,6017-9744,,,1410752.0,63,258.0,180,New Territories,Tuen Mun
00000000-0000-0000-0000000000b6,P623,Wah Ming Centre,華明中心,"421 Queen's Road West, Sai Ying Pun",西營盤皇后大道西421號,22.2860658,114.1374439,9229-6642,,,1411974.0,13,260.0,182,Hong Kong,Shek Tong Tsui
00000000-0000-0000-0000000000b7,P625,K-Point,錦薈坊,"1 Tuen Lung Street, Tuen Mun",屯門屯隆街1號,22.393529918482365,113.97544629871844,6113-9692,,,1412659.0,63,261.0,183,New Territories,Tuen Mun
00000000-0000-0000-0000000000b9,P627,Castello,帝堡城,"Siu Lek Yuen Road, Shatin",沙田小瀝源路,22.38278267844513,114.21604245901108,6017-9744,,,1410851.0,55,263.0,185,New Territories,Siu Lek Yuen
00000000-0000-0000-0000000000ba,P628,Millennium Trade Centre,貿易之都,"56 Kwai Cheong Road, Kwai Chung",葵涌葵昌路56號,22.3633317,114.1327831,6407-1263,website_g3@wilsonparking.com.hk,,7999628.0,49,264.0,186,New Territories,Kwai Tsing
00000000-0000-0000-0000000000bb,P629,Grand City Plaza,新領域廣場,"1 Sai Lau Kok Road, Tsuen Wan",荃灣西樓角路1號,22.3747279,114.1145175,9860-7629,website_g3@wilsonparking.com.hk,,7999629.0,62,265.0,187,New Territories,Tsuen Wan Town
00000000-0000-0000-0000000000bc,P630,Peninsula Tower,半島大廈,"538 Castle Peak Road, Cheung Sha Wan",長沙灣青山道538號,22.339777976203138,114.15080308914185,9684-0630,calvinchan@wilsonparking.com.hk,3.6,1410885.0,22,266.0,188,Kowloon,Sham Shui Po
00000000-0000-0000-0000000000bd,P631,Millennium City 1 ,創紀之城1期,"388 Kwun Tong Road, Kwun Tong",觀塘觀塘道388號,22.313257129489088,114.22114670276642,9856-0631,,,1411016.0,29,267.0,189,Kowloon,Kwun Tong
00000000-0000-0000-0000000000be,P632,Millennium City 2 & 3,創紀之城2及3期,"370-378 Kwun Tong Road, Kwun Tong",觀塘觀塘道370-378號,22.31416282670572,114.21998530626296,9856-0632,,,1412139.0,29,268.0,190,Kowloon,Kwun Tong
00000000-0000-0000-0000000000bf,P633,Millennium City 6,創紀之城6期,"392 Kwun Tong Road, Kwun Tong",觀塘觀塘道392號,22.312870035187796,114.22213912010191,9856-0633,,,1411933.0,29,269.0,191,Kowloon,Kwun Tong
00000000-0000-0000-0000000000c0,P634,Fung Nam Road,鳳南路,"Fung Nam Road, Sheung Shui",上水鳳南路,22.507611150843623,114.1281022131443,6017-9744,,,1413848.0,56,270.0,192,New Territories,North
00000000-0000-0000-0000000000c1,P635,San Shing Avenue,新成路,"San Shing Avenue, Sheung Shui",上水新成路,22.506141747365294,114.12774950265884,6113-3635,,,7999635.0,56,271.0,193,New Territories,North
00000000-0000-0000-0000000000c2,P637,Sun Kwai Hing Plaza,新葵興廣場,"166-174 Hing Fong Road, Kwai Chung",葵涌興芳路166-174號,22.36402913134557,114.13142681121826,9664-7637,,,1410547.0,49,272.0,194,New Territories,Kwai Tsing
00000000-0000-0000-0000000000c3,P638,Metropolis Plaza,新都廣場,"8 Lung Wan Street, Sheung Shui",上水龍運街8號,22.50250410126431,114.1293078660965,9248-4638,,,1410836.0,56,273.0,195,New Territories,North
00000000-0000-0000-0000000000c4,P639,Yuen Long Plaza,元朗廣場,"251 Castle Peak Road, Yuen Long",元朗青山公路251號,22.445176251488796,114.0238930284977,9317-7639,,,1412501.0,65,274.0,196,Hong Kong,Yuen Long
00000000-0000-0000-0000000000c5,P640,Thriving Industrial Centre,匯力工業中心,"26-28 Sha Tsui Road, Tsuen Wan",荃灣沙咀道26-38號,22.37384895354824,114.10882115364076,9861-3640,,,1411263.0,62,275.0,197,New Territories,Tsuen Wan
00000000-0000-0000-0000000000c6,P643,The Chelsea ,The Chelsea 蘇杭街69號,"69 Jervois Street, Sheung Wan",上環蘇杭街69號,22.28527935899353,114.15122151374815,9665-6643,website_g3@wilsonparking.com.hk,,7999643.0,16,276.0,198,Hong Kong,Sheung Wan
00000000-0000-0000-0000000000c8,P648,Admiralty Car Park,金鐘停車場,"Rodney Street, Queensway, Admiralty",金鐘樂禮街,22.27841186364058,114.16585832834244,9304-5057,,,1410745.0,2,278.0,200,Hong Kong,Admiralty
00000000-0000-0000-0000000000c9,P650,New Tech Plaza,新科技廣場,"34 Tai Yau Street, San Po Kong",新蒲崗大有街34號,22.33685792791796,114.19677078723907,9544-0650,,,1412196.0,35,279.0,201,Kowloon,San Po Kong
00000000-0000-0000-0000000000cb,P655,Evergreen Court,翠林閣,"9 Chui Lok Street, Tai Po",大埔翠樂街9號,22.45376826527015,114.16434824466704,9444-4655,calvinchan@wilsonparking.com.hk,,1412212.0,57,281.0,203,New Territories,Tai Po
00000000-0000-0000-0000000000cc,P656,Fanling Town Centre,粉嶺名都,"18 Fanling Station Road, Fanling",粉嶺火車站路18號,22.492383607039063,114.13885116577148,9444-4656,,,1412162.0,47,282.0,204,New Territories,North
00000000-0000-0000-0000000000cd,P657(I),Shatin Park Stage 1,花園城第一期,"8-12 Sha Kok Street, Shatin",沙田沙角街8-12號,22.379526226053223,114.19780880212784,9160-6657,,,1412766.0,55,283.0,205,New Territories,Sha Tin
00000000-0000-0000-0000000000cf,P657(III),Shatin Park Stage 3,花園城第三期,"13-15 Kong Pui Street, Shatin",沙田崗背街13-15號,22.379749443044684,114.1976498812437,9160-6657,,,1412774.0,55,284.0,207,New Territories,Sha Tin
00000000-0000-0000-0000000000d0,P658,Sheung Shui Town Centre,上水名都,"9 Chi Cheong Road, Sheung Shui",上水智昌路9號,22.50126757715597,114.13195252418518,9444-4658,,,1412220.0,56,285.0,208,New Territories,North
00000000-0000-0000-0000000000d7,P499,Tak Bo Garden,得寶花園,"3 Ngau Tau Kok Road, Ngau Tau Kok",牛頭角牛頭角道3號,22.327474657093255,114.21437948942184,9170-6499,,,1410463.0,33,286.0,215,Kowloon,Jordan Valley
00000000-0000-0000-0000000000d8,P494,8 Commercial Tower,八號商業廣場,"8 Sun Yip Street, Chai Wan",柴灣新業街8號,22.267064990004062,114.24690261483192,6113-9694,,,1410075.0,6,287.0,216,Hong Kong,Eastern
00000000-0000-0000-0000000000db,P482,Austin Tower,好兆年行,"22-26A Austin Avenue, Tsim Sha Tsui",尖沙咀柯士甸路22-26A號,22.302892061110796,114.17506635189056,9229-6642,,,1411230.0,40,288.0,219,Kowloon,Tsim Sha Tsui
00000000-0000-0000-0000000000dc,P481,Concord Square,協和廣場,"B1-B2, 1 Tai Uk Street, Tsuen Wan",荃灣大屋街1號B1-B2,22.3701470685721,114.11505192518234,9229-6642 ,,,1410406.0,62,289.0,220,New Territories,Tsuen Wan
00000000-0000-0000-0000000000dd,P480,Grandway Garden,富嘉花園,"16 Mei Tin Road / 15 & 35 Tsuen Nam Road, Shatin",沙田美田路16號/ 15 & 35 村南道,22.373975448380783,114.17786121368408,6017-9744,,,1411214.0,58,290.0,221,New Territories,Sha Tin
00000000-0000-0000-0000000000de,P479,Wai Wah Centre,偉華中心,"11-17 Sha Tin Centre Street, Shatin",沙田正街11-17號,22.381337993625294,114.18779745697977,6017-9744,,,1411222.0,55,291.0,222,New Territories,Sha Tin
00000000-0000-0000-0000000000e5,P387,Cheung Sha Wan Wholesale Food Market,長沙灣副食品批發市場,"36 Yen Chow Street West, Cheung Sha Wan",長沙灣欽州街西36號,22.323584210592408,114.15307760238647,9680-3118,,,,22,294.0,229,Kowloon,Sham Shui Po
00000000-0000-0000-0000000000e9,P706,South Wave Court,南濤閣,"3 Shum Wan Road, Aberdeen",香港仔深灣道3號,22.24512939520358,114.16603535413742,9160-0266,,,,1,295.0,233,Hong Kong,Sham Wan
00000000-0000-0000-0000000000eb,P349,Sai Kung Garden,西貢花園,"16 Chan Man Street, Sai Kung",西貢親民街16號,22.38262394985941,114.27147567272186,6017-9744,,,1412469.0,53,296.0,235,New Territories,Sai Kung Town Centre
00000000-0000-0000-0000000000ec,P467,Harbour Pinnacle,凱譽,"2-20A Minden Avenue, Tsim Sha Tsui",尖沙咀棉登徑2-20A,22.296742633785076,114.174512475729,6113-9693,,,1412378.0,40,297.0,236,Kowloon,Yau Tsim Mong
00000000-0000-0000-0000000000ee,P463,Bedford Road,必發道,"59-65 Bedford Road, Tai Kok Tsui",大角咀必發道59-65號,22.322869626994255,114.16388288140296,9843-0463,,,7999463.0,38,298.0,238,Kowloon,Tai Kok Tsui
00000000-0000-0000-0000000000f2,P456,CCT Telecom Building,中建電訊大廈,"11 Wo Shing Street, Fo Tan",火炭禾盛街11號,22.39745684977921,114.19789731502532,9867-0813,calvinchan@wilsonparking.com.hk,,1410786.0,48,302.0,242,New Territories,Sha Tin
00000000-0000-0000-0000000000f4,P325,Two Chinachem Exchange Square,華懋交易廣場二期,"338 King's Road, North Point",北角英皇道338號,22.29039563471761,114.19721268117428,6113-9696,,,1410448.0,9,304.0,244,Hong Kong,North Point
00000000-0000-0000-0000000000f5,P323,Hop Yick Plaza,合益廣場,"19-27 Tai Tong Road, Yuen Long",元朗大棠道19-27號,22.443066291109822,114.0293884268284,6017-9744,,,1410778.0,65,305.0,245,New Territories,Yuen Long
00000000-0000-0000-0000000000f7,P266,Southmark,南匯廣場,"11 Yip Hing Street / Yip Kan Street, Aberdeen",香港仔業興街11號/業勤街,22.249312479048204,114.16477739810944,9160-0266,,,,1,307.0,247,Hong Kong,Wong Chuk Hang
00000000-0000-0000-0000000000f8,P255,Chinachem Tsuen Wan Plaza,華懋荃灣廣場,"455 Castle Peak Road, Tsuen Wan",荃灣青山道455號,22.375247831184765,114.11142826080322,6017-9741,,,1410117.0,62,308.0,248,New Territories,Tsuen Wan
00000000-0000-0000-0000000000fc,P233,Cheong Shing Court,昌盛閣,"5-7 San Lau Street, To Kwa Wan",土瓜灣新柳街5至7號,22.31234522293076,114.18699949979782,2764-5505,,,7999233.0,39,312.0,252,Kowloon,Kowloon City
00000000-0000-0000-0000000000fe,P232,Siu On Centre,兆安中心,"188 Lockhart Road, Wan Chai",灣仔洛克道188號,22.27818476144854,114.17418256402016,6010-8232,,,1412410.0,21,314.0,254,Hong Kong,Wan Chai
00000000-0000-0000-0000000000ff,P228,New Mandarin Plaza,新文華中心,"14 Science Museum Road, Tsim Sha Tsui",尖沙咀科學館道14號,22.300563102825183,114.17892470955849,9869-3273,,,1410083.0,40,315.0,255,Kowloon,Yau Tsim Mong
00000000-0000-0000-000000000101,P221,Sai Kung Town Centre,西貢苑,"22-40 Fuk Man Road & Chan Man Street, Sai Kung",西貢福民路22-40號及親民街,22.38253962522458,114.27171170711516,6017-9742,,,1410943.0,53,317.0,257,New Territories,Sai Kung Town Centre
00000000-0000-0000-000000000102,P219,Peninsula Square,半島廣場,"18 Sung On Street, Hunghom",紅磡祟安街18號,22.311401052177377,114.1894268989563,9131-6329,calvinchan@wilsonparking.com.hk,,1410281.0,25,318.0,258,Kowloon,Hung Hom
00000000-0000-0000-000000000103,P200,Sunway Gardens,新威園,"989 King's Road, Quarry Bay",鰂魚涌英皇道989號,22.286157937241946,114.21238660812378,6496-2177,,,1410109.0,11,319.0,259,Hong Kong,Quarry Bay
00000000-0000-0000-000000000104,P218,Kam Tao Building,金都洋樓,"16 Glass Street / 4 Whifield Road, North Point",北角玻璃街16號/威菲路道4號,22.28652276895992,114.1905078291893,6113-9698,,,,9,320.0,260,Hong Kong,Wan Chai
00000000-0000-0000-000000000105,P212,Eldo Court,雅都花園,"126 Heung Sze Wui Road, Tuen Mun",屯門鄉事會路126號,22.397947863384296,113.97588148713112,6017-9744,calvinchan@wilsonparking.com.hk,,1410927.0,63,321.0,261,New Territories,Tuen Mun
00000000-0000-0000-000000000107,P196,HK Sanatorium & Hospital,養和醫院,"2-4 Village Road, Happy Valley",跑馬地山村道2至4號,22.2691673,114.1835988,9383-3196,,,,7,323.0,263,Hong Kong,Wan Chai
00000000-0000-0000-000000000108,P195,Dragon Centre (Sham Shui Po),西九龍中心,"37K Yen Chow Street, Sham Shui Po",深水埗欽州街37K,22.330536942772227,114.15978111326694,9862-1935,,,,37,324.0,264,Kowloon,Sham Shui Po
00000000-0000-0000-000000000109,P178,Lai Bo Garden,麗寶花園,"38 Cheung Wah Street, Cheung Sha Wan",長沙灣昌華街38號,22.34004777367011,114.15527768433094,9433-2178,calvinchan@wilsonparking.com.hk,2.0,1410893.0,22,325.0,265,Kowloon,Sham Shui Po
00000000-0000-0000-00000000010a,P427,Fortune Plaza,昌運中心,"4 On Chee Road, Tai Po",大埔安慈路4號,22.452263585788028,114.16741669178008,9381-7427,,,1410158.0,57,326.0,266,New Territories,Tai Po
00000000-0000-0000-00000000010b,P173,Tsuen Wan Plaza,荃灣廣場,"4-30 Tai Pa Street, Tsuen Wan",荃灣大壩街4至30號,22.3711416,114.1118007,6018-9971,,3.2,1411115.0,62,327.0,267,Hong Kong,Tsuen Wan Town
00000000-0000-0000-00000000010c,P426,Easy Tower,永義廣場,"609-611 Tai Nan West Street, Cheung Sha Wan",長沙灣大南西街609-611號,22.33906099465032,114.14868280291556,9723-0426,,,7999426.0,22,328.0,268,Kowloon,Sham Shui Po
00000000-0000-0000-00000000010f,P165,Harbour Heights O/A,海峰園 (露天),"Electric Road, North Point",北角電器道,22.2878873,114.190003,9663-9123,,,1412683.0,9,331.0,271,Hong Kong,Eastern
00000000-0000-0000-000000000117,P125,Hong Lai Gardens,康麗花園,"Heung Sze Wui Road, Tuen Mun",屯門鄉事會路,22.398776134929424,113.97460341453552,6113-9695,,,1410950.0,63,339.0,279,New Territories,Tuen Mun
00000000-0000-0000-000000000118,P111,YOHO PLUS,加點,"2-6 Fung Cheung Road, Yuen Long",元朗鳳翔路2-6號,22.443904508897525,114.03154268860816,6113-9691,,,1410307.0,65,340.0,280,New Territories,Yuen Long
00000000-0000-0000-000000000119,P93,The Sun Arcade,新太陽廣場,"Kowloon Park Drive, Tsim Sha Tsui",尖沙咀九龍公園徑,22.2967958,114.1700694,6017-9740,website_g3@wilsonparking.com.hk,,1410091.0,40,341.0,281,Kowloon,Yau Tsim Mong
00000000-0000-0000-00000000011b,P84,Onbury,安百利,"3 Peace Avenue, Mongkok",旺角太平道3號,22.31795924698961,114.17405247688292,9229-6642,calvinchan@wilsonparking.com.hk,,1412600.0,32,342.0,283,Kowloon,Ho Man Tin
00000000-0000-0000-00000000011c,P81,Chinachem Golden Plaza,華懋廣場,"77 Mody Road, Tsim Sha Tsui East",尖沙咀東麼地道77號,22.30021195657189,114.17872220277786,9229-6642,,,1410356.0,40,343.0,284,Kowloon,Yau Tsim Mong
00000000-0000-0000-00000000011d,P78,Ho Shun Tai Building,好順泰大廈,"423 Sai Ching Street, Yuen Long",元朗西菁街423號,22.442069386097817,114.02766220271587,6017-9744,calvinchan@wilsonparking.com.hk,,1410257.0,65,344.0,285,New Territories,Yuen Long Town
00000000-0000-0000-00000000011e,P77,Shun Fook Barn Car Park,順福糧倉停車場,"60 Sau Fu Street, Yuen Long",元朗壽富街60號,22.44540927908164,114.02659803628922,6113-9697,,,1410372.0,65,345.0,286,New Territories,Yuen Long Town
00000000-0000-0000-000000000120,P70,The Park Lane,柏寧酒店,"310 Gloucester Road, Causeway Bay",銅鑼灣告士打道310號,22.28066797358348,114.18625250458716,9130-1070,calvinchan@wilsonparking.com.hk,,1412006.0,4,347.0,288,Hong Kong,Causeway Bay
00000000-0000-0000-000000000121,P50,Fu Shing Building,富盛大廈,"9 Sai Ching Street, Yuen Long",元朗西菁街9號,22.442183423480422,114.02753680944444,9225-7363,,,1410133.0,65,348.0,289,New Territories,Yuen Long Town
00000000-0000-0000-000000000122,P49,Viking Gardens,維景花園,"40-42 Hing Fat Street, Tin Hau",天后興發街40至42號,22.283915566283856,114.19170677661896,9736-0049,,,1410364.0,20,349.0,290,Hong Kong,Wan Chai
00000000-0000-0000-000000000123,P36,Po Sing Centre,寶星中心,"Lower G/F Po Sing Centre, 1-25 Ta Chuen Ping Street, Kwai Chung",葵涌打磚坪街1-25號寶星中心地下,22.36667080354612,114.13594365119934,9229-6642,calvinchan@wilsonparking.com.hk,,1412782.0,49,350.0,291,New Territories,Kwai Tsing
00000000-0000-0000-000000000124,P25,Kwai Sing Centre,葵星中心,"367 Castle Peak Road, Kwai Chung",葵涌青山道367號,22.36540082279022,114.1359516978264,9169-8071,,,1410232.0,49,351.0,292,New Territories,Kwai Tsing
00000000-0000-0000-000000000126,P23,Victoria Centre,維多利中心,"15 Watson Road, North Point",北角屈臣道15號,22.287395134819835,114.19047832489014,6113-9698,,,1410935.0,9,353.0,294,Hong Kong,Wan Chai
00000000-0000-0000-000000000127,P9,Kwai Fong Car Park,葵芳停車場,"19 Kwai Yi Road, Kwai Fong",葵芳葵義路19號,22.355622575294777,114.12790238857268,2429-0566,,,1410653.0,50,354.0,295,New Territories,Kwai Tsing
00000000-0000-0000-000000000128,P5,City Hall Car Park,大會堂停車場,"1 Edinburgh Place, Central",中環愛丁堡廣場1號,22.281969,114.16172504425047,2118-6918,,,1410620.0,5,355.0,296,Hong Kong,Central
00000000-0000-0000-000000000129,P4,Star Ferry Car Park,天星停車場,"9 Edinburgh Place, Central",中環愛丁堡廣場9號,22.2831833,114.160275,2118-6917,,,1410612.0,5,356.0,297,Hong Kong,Central
00000000-0000-0000-00000000012a,P88,World Trade Centre,世界貿易中心,"280 Gloucester Road, Causeway Bay",銅鑼灣告士打道280號,22.2820783,114.1837498,6111-2752,,,1410018.0,4,357.0,298,Hong Kong,Causeway Bay
00000000-0000-0000-00000000012e,P317,Verbena Heights,茵怡花園,"8 Mau Tai Road, Tseung Kwan O",將軍澳貿泰路8號,22.3219316,114.2565317,6113-1317,,,,60,103.0,302,New Territories,Po Lam
00000000-0000-0000-000000000130,P592,The Pinnacle,叠翠軒,"8 Wan Hang Road, Tsueng Kwan O",將軍澳運享路8號,22.3211662,114.2584566,9016-8592,,,,60,101.0,304,New Territories,Po Lam
00000000-0000-0000-00000000013b,P855,Lancashire Centre,利嘉中心,"361 Shau Kei Wan Road, Shau Kei Wan",筲箕灣筲箕灣道361號,22.2773942,114.2275115,5501-2855,,,7999855.0,14,93.0,315,Hong Kong,Shau Kei Wan
00000000-0000-0000-00000000013d,P857,Port 33,Port 33,"No. 33, Tseuk Luk Street, San Po Kong",新蒲崗爵祿街33號,22.335393,114.197652,5501-3857,,,1413301.0,35,91.0,317,Kowloon,San Po Kong
00000000-0000-0000-000000000149,P872,Hyatt Centric,凱悅尚萃酒店,"B1/F, 1 North Point Estate Lane, North Point",北角北角邨里一號地下低層,22.2924714,114.1992249,5720-6872,,,1413343.0,9,79.0,329,Hong Kong,North Point
00000000-0000-0000-00000000014a,P330-1,HKIA Car Park 1,香港國際機場1號停車場,"Hong Kong International Airport, Chek Lap Kok, Lantau Island    ",大嶼山赤鱲角香港國際機場,22.3124376,113.9361457,2183-4360,,,,96,73.0,330,New Territories,Chek Lap Kok
00000000-0000-0000-00000000014c,P330-4,HKIA Car Park 4,香港國際機場4號停車場,"Hong Kong International Airport, Chek Lap Kok, Lantau Island ",大嶼山赤鱲角香港國際機場,22.3182403,113.9337519,2183-4360,,,,96,75.0,332,New Territories,Chek Lap Kok
00000000-0000-0000-00000000014f,P330-loading dock 1,HKIA Loading Dock 1,香港國際機場1號卸貨區,"Hong Kong International Airport, Chek Lap Kok, Lantau Island ",大嶼山赤鱲角香港國際機場,22.312712,113.9360561,2183-4360,,,,96,77.0,335,New Territories,Chek Lap Kok
00000000-0000-0000-000000000152,P873,Coda Plaza,科達中心,"Basement Level 1 - 4, 51 Garden Road, Central",中環花園道51號地庫1至4層,22.2763392,114.1563178,9229-6642,,,1412535.0,5,70.0,338,Hong Kong,Mid-Levels
00000000-0000-0000-000000000154,P869-1,"Car Park 1, HZMB Hong Kong Port ",港珠澳大橋香港口岸1號停車場,"Car Park 1, Hong Kong-Zhuhai-Macao Bridge Hong Kong Port Artificial Island, Chek Lap Kok, Lantau Island",大嶼山赤鱲角港珠澳大橋香港口岸人工島1號停車場,22.31671,113.952456,6466-2869/ 2499- 6132,,,,96,69.0,340,New Territories,Chek Lap Kok
00000000-0000-0000-000000000155,P869-2,"Car Park 2, HZMB Hong Kong Port ",港珠澳大橋香港口岸2號停車場,"Car Park 2, Hong Kong-Zhuhai-Macao Bridge Hong Kong Port Artificial Island, Chek Lap Kok, Lantau Island",大嶼山赤鱲角港珠澳大橋香港口岸人工島2號停車場,22.315912,113.952561,6466-2869/ 2499- 6132,,,,96,68.0,341,New Territories,Chek Lap Kok
00000000-0000-0000-000000000156,P869-3,"Car Park 3, HZMB Hong Kong Port ",港珠澳大橋香港口岸3號停車場,"Car Park 3, Hong Kong-Zhuhai-Macao Bridge Hong Kong Port Artificial Island, Chek Lap Kok, Lantau Island",大嶼山赤鱲角港珠澳大橋香港口岸人工島3號停車場,22.314997,113.953208,6466-2869/ 2499- 6132,,,,96,67.0,342,New Territories,Chek Lap Kok
00000000-0000-0000-000000000157,P869-4,"Car Park 4, HZMB Hong Kong Port ",港珠澳大橋香港口岸4號停車場,"Car Park 4, Hong Kong-Zhuhai-Macao Bridge Hong Kong Port Artificial Island, Chek Lap Kok, Lantau Island",大嶼山赤鱲角港珠澳大橋香港口岸人工島4號停車場,22.314,113.952404,6466-2869/ 2499- 6132,,,,96,66.0,343,New Territories,Chek Lap Kok
00000000-0000-0000-000000000158,P869-5,"Car Park 5, HZMB Hong Kong Port ",港珠澳大橋香港口岸5號停車場,"Car Park 5, Hong Kong-Zhuhai-Macao Bridge Hong Kong Port Artificial Island, Chek Lap Kok, Lantau Island",大嶼山赤鱲角港珠澳大橋香港口岸人工島5號停車場,22.314056,113.952879,6466-2869/ 2499- 6132,,,,96,65.0,344,New Territories,Chek Lap Kok
00000000-0000-0000-000000000159,P858,Tsuen Wan West Station,荃灣西站,"Level B1 & B2 of Ocean Supreme, 100 Tai Ho Road, Tsuen Wan",荃灣大河道100號海之戀．愛炫美B1及B2層,22.3699094,114.1083287,9440-4858,,,,62,64.0,345,New Territories,Tsuen Wan Town
00000000-0000-0000-00000000015b,P876,One Sky Parc,One Sky Parc,"53 Hung To Road, Kwun Tong",觀塘鴻圖道53號,22.3111392,114.2223215,9229-6642,,,1412865.0,29,62.0,347,Kowloon,Kwun Tong
00000000-0000-0000-000000000170,P330-3-LGV & Taxi Long Term,HKIA Prebooked Taxi Pick-up Zone/ LGV/ Taxi Long Term Parking Area,香港國際機場預約的士上客區/ 輕型貨車/ 的士長期停放區,"Hong Kong International Airport, Chek Lap Kok, Lantau Island",大嶼山赤鱲角香港國際機場,22.3121688,113.9362772,2183-4360,,,,96,41.0,368,New Territories,Chek Lap Kok
00000000-0000-0000-000000000171,P330-3-LGV (hourly),HKIA LGV (Hourly) Parking Area, 香港國際機場輕型貨車 (時租) 停放區,"Hong Kong International Airport, Chek Lap Kok, Lantau Island",大嶼山赤鱲角香港國際機場,22.3145835,113.9378033,2183-4360,,,,96,40.0,369,New Territories,Chek Lap Kok
00000000-0000-0000-000000000174,P729,Clague Garden Estate,祈德尊新邨,"26 Hoi Shing Road, Tsuen Wan",荃灣海盛路26號,22.3697724,114.1111485,9664-2729,,,,62,37.0,372,New Territories,Tsuen Wan Town
00000000-0000-0000-00000000018d,P909,909 Cheung Sha Wan Road,長沙灣道909號,"909 Cheung Sha Wan Road, Cheung Sha Wan, Kowloon",九龍長沙灣長沙灣道909號,22.33635033838323,114.1461728096285,6321-5909,,,1411842.0,22,12.0,397,Kowloon,Sham Shui Po
00000000-0000-0000-00000000018f,P443,Cayman Rise,加惠臺,"29 Ka Wai Man Road, Kennedy Town",堅尼地城加惠民道29號,22.2812806,114.1248239,9386-0443,,,,8,10.0,399,Hong Kong,Kennedy Town
00000000-0000-0000-000000000190,P504,Yue Kwong Chuen,漁光村,"26 Aberdeen Reservoir Road, Aberdeen",香港仔水塘道26號,22.2516167,114.1567901,6329-3504,,,7999504.0,1,9.0,400,Hong Kong,Aberdeen
00000000-0000-0000-000000000191,P913,Marina 8,Marina 8,"8 Heung Yip Road, Wong Chuk Hang",黃竹坑香葉道8號,22.24861357325216,114.16769237094246,6011-2913,,,1410679.0,75,8.0,401,Hong Kong,Wong Chuk Hang
00000000-0000-0000-000000000193,P72(S8),Mei Foo Sun Chuen Stage 8,美孚新邨8期,"Stage 8 Mei Foo Sun Chuen, Lai Chi Kok",荔枝角美孚新邨8期,22.3351346,114.1411088,2741-4408,,,,30,6.0,403,Kowloon,Lai Chi Kok
00000000-0000-0000-000000000194,P919,Yuk Yat Street ,旭日街,"17 Yuk Yat Street, To Kwa Wan, Kowloon",九龍土瓜灣旭日街17號,22.3163442,114.1920077,9312-0919,,,7999919.0,39,5.0,404,Kowloon,To Kwa Wan
00000000-0000-0000-000000000196,P918,International Trade Centre,達貿中心,"11-19 Sha Tsui Road, Tsuen Wan",荃灣沙咀道11-19號,22.3745266,114.108041,9664-2918,,,1410422.0,62,3.0,406,New Territories,Tsuen Wan
00000000-0000-0000-000000000197,P921,Wetland Public Vehicle Park,Wetland Public Vehicle Park,"1 Wetland Park Road, Tin Shui Wai",天水圍濕地公園路1號,22.4680994,114.0033711,5726-2921,,,1412311.0,59,2.0,407,New Territories,Yuen Long
00000000-0000-0000-000000000199,P440,Lucky Plaza,好運中心,"1-15 Wang Pok Street, Shatin",沙田橫壆街1-15號,22.3831662,114.1900592,6462-8440,,,1411578.0,55,1.0,409,Hong Kong,Sha Tin
00000000-0000-0000-00000000019a,P209,Tai Po Mega Mall Multi-Storey Car Park,大埔超級城多層停車場,"On Pong Road, Tai Po",大埔安邦路2號,22.4534163,114.1711666,9725-9209,,,1411107.0,57,,410,New Territories,Tai Po Town
00000000-0000-0000-00000000019d,P925,Honour Industrial Centre,安力工業中心,"6 Sun Yip Street, Chai Wan",柴灣新業街6號,22.2666837,114.2472343,5724-5925,,,1410489.0,6,,413,Hong Kong,Eastern
00000000-0000-0000-00000000019e,P926,New Commerce Centre,滙貿中心,"19 On Sum Street, Shek Mun, Shatin",沙田石門安心街19號,22.3892415,114.2075157,5724-5926,,,1410414.0,55,414.0,414,New Territories,Shek Mun
00000000-0000-0000-00000000019f,P927,New Trade Plaza,新貿中心,"6 On Ping Street, Shek Mun, Shatin",沙田石門安平街6號,22.3909887,114.2071565,5724-5927,,,1412758.0,55,415.0,415,Hong Kong,Shek Mun
00000000-0000-0000-0000000001a0,P929A,"West Gate Open Car Park, West Kowloon Cultural District",西九文化區西閘露天停車場,"Museum Drive, West Kowloon, Tsim Sha Tsui",尖沙咀西九龍博物館道,22.3021314,114.1567398,5724-5929,,,,40,,416,Kowloon,Yau Ma Tei
00000000-0000-0000-0000000001a1,P929B,"Hong Kong Palace Museum Car Park, West Kowloon Cultural District",西九文化區香港故宮文化博物館停車場,"Museum Drive, West Kowloon, Tsim Sha Tsui",尖沙咀西九龍博物館道,22.3008014,114.1565887,2104-5366,,,,40,,417,Kowloon,Yau Ma Tei
00000000-0000-0000-0000000001a2,P929C,"Art Park Car Park, West Kowloon Cultural District",西九文化區藝術公園停車場,"Museum Drive, West Kowloon, Tsim Sha Tsui",尖沙咀西九龍博物館道,22.3013584,114.1577688,6113-4929,,,,40,,418,Kowloon,Yau Ma Tei
00000000-0000-0000-0000000001a3,P929D,"M+ Car Park, West Kowloon Cultural District ",西九文化區M+停車場,"M+, Museum Drive, West Kowloon, Tsim Sha Tsui",尖沙咀西九龍博物館道M+,22.3017597,114.158423,9018-4929,,,,40,,419,Kowloon,Yau Ma Tei
00000000-0000-0000-0000000001a4,P928,Brill Plaza,環凱廣場,"No.84 To Kwa Wan Road, To Kwa Wan, Kowloon",九龍土瓜灣土瓜灣道84號,22.3180475,114.1911688,9440-4928,,,1411248.0,39,,420,Kowloon,To Kwa Wan
00000000-0000-0000-0000000001a5,P924,Scramble Hill,三布目,"98 How Ming Street, Kwun Tong",觀塘巧明街98號,22.3131996,114.2205472,9853-1924,,,1412204.0,29,,421,Kowloon,Kwun Tong
00000000-0000-0000-0000000001a6,P930,Hi-Tech Industrial Centre,嘉力工業中心,"5-21 Pak Tin Par Street, Tsuen Wan",荃灣白田壩街5-21號,22.3744861,114.1090743,8489-1930,,,1410810.0,62,,422,New Territories,Tsuen Wan
00000000-0000-0000-0000000001a7,P931,Valiant Industrial Centre,威力工業中心,"2-12 Au Pui Wan Street, Fo Tan, Shatin",沙田火炭坳背灣街2-12號,22.3976461,114.196326,9012-5931,,,7999931.0,48,,423,New Territories,Fo Tan
00000000-0000-0000-0000000001a8,P932,The Burrow,The Burrow,"15-17 Ng Fong Street, San Po Kong, Kowloon",九龍新蒲崗五芳街15-17號 ,22.3382348,114.1998195,9737-0932,,,1414085.0,35,,424,Kowloon,San Po Kong
00000000-0000-0000-0000000001a9,P933,Mega Trade Centre,時貿中心,"1-6 Mei Wan Street, Tsuen Wan",荃灣美環街1-6號 ,22.3752084,114.1146948,9229-6642,,,1413855.0,62,,425,New Territories,Tsuen Wan
00000000-0000-0000-0000000001ab,P937,Beauty Court,麗珊園,"3 Hung Tai Road, Hung Shui Kiu, Yuen Long",元朗洪水橋洪堤路3號,22.4338844,113.9968783,6017-9744,,,1413913.0,65,,427,New Territories,Hung Shui Kiu
00000000-0000-0000-0000000001ac,P936,Aster Court,雅珊園,"8 Hung Tai Road, Hung Shui Kiu, Yuen Long",元朗洪水橋洪堤路8號,22.4341531,113.9961923,6017-9744,,,1413905.0,65,,428,New Territories,Hung Shui Kiu
00000000-0000-0000-0000000001ad,P935,Tonic Industrial Centre,同力工業中心,"19 Lam Hing Street, Kowloon Bay",九龍灣臨興街19號,22.3246324,114.2103418,9437-6935,,,1413889.0,27,,429,Kowloon,Kowloon Bay
00000000-0000-0000-0000000001ae,P934,Eight Regency,珀御,"8 Leung Tak Street, Tuen Mun",屯門良德街8號,22.4078489,113.9677669,6017-9744,,,1413392.0,63,,430,New Territories,Tuen Mun
00000000-0000-0000-0000000001af,P940,SOHO West,SOHO West,"10 Lai Ying Street, Cheung Sha Wan",長沙灣荔盈街10號,22.3270562,114.1495751,9441-1940,,,1413897.0,22,,431,Kowloon,Cheung Sha Wan
00000000-0000-0000-0000000001b0,P938,Mayfair Gardens,美景花園,"2-16 Sai Shan Road, Tsing Yi",青衣細山路2-16號,22.343804,114.1062832,9451-5938,,,1413962.0,61,,432,New Territories,Kwai Tsing
00000000-0000-0000-0000000001b1,P939,Kodak House II,柯達大廈二座,"39 Healthy Street East, North Point",北角健康東街39號,22.2927647,114.2075017,9451-7939,,,1413954.0,9,,433,Hong Kong,Eastern
00000000-0000-0000-0000000001b2,P756,Hoi Wah Road (II),海華路(II),"Hoi Wah Road,Tuen Mun",屯門海華路,22.3811704,113.9739579,6017-9744,,,1412543.0,63,,434,New Territories,Tuen Mun
00000000-0000-0000-0000000001b3,P942,V Walk,V Walk,"Level 3, 28 Sham Mong Road, Sham Shui Po",深水埗深旺道28號3樓,22.3263735,114.1549457,9852-6942,,,1413426.0,37,,435,Kowloon,Sham Shui Po
00000000-0000-0000-0000000001b4,P941,GO PARK Sai Sha,西沙GO PARK,"No.9 Hoi Ying Road, Ma On Shan",馬鞍山海映路9號,22.4267274,114.265343,9162-7941,,,1414010.0,52,,436,New Territories,Tai Po
00000000-0000-0000-0000000001b5,P944,Harbour North Phase 2-3,北角匯 二至三期,"123 Java Road, North Point (Phase 2) ; 133 Java Road, North Point (Phase 3)",北角渣華道123號 (二期)；北角渣華道133號 (三期),22.2936005,114.2026298,9734-0944,,,1413319.0,9,,437,Hong Kong,North Point
00000000-0000-0000-0000000001b6,P945,Ka Fu Fong Public Car Park,嘉富坊公眾停車場,"San Wan Road, Sheung Shui Town Lot No. 301",上水市地段第301號新運路,22.5060105,114.1241301,6019-5945,,,1414069.0,56,,438,New Territories,North
00000000-0000-0000-0000000001b7,P946,Technology Plaza,科匯中心,"No. 651 King's Road, North Point",香港北角英皇道651號,22.2921486,114.2075769,9167-2946,,,7999946.0,9,,439,Hong Kong,Eastern
00000000-0000-0000-0000000001b8,P947,S22,S22,"22 Heung Yip Road, Wong Chuk Hang",香港黃竹坑香葉道22號,22.2478227,114.1659994,9684-1947,,,1413988.0,75,,440,Hong Kong,Wong Chuk Hang
00000000-0000-0000-0000000001bf,P948,GO PARK Aqua Public Car Park,GO PARK Aqua 公眾停車場,"Tai Po Town Lot No. 254, New Territories",新界大埔市地段254號,22.4291265,114.2679965,9162-7941,,,,52,,447,New Territories,Tai Po
00000000-0000-0000-0000000001c0,P943,Yue Ying Lau,漁映樓,"33 Shek Pai Wan Road, Aberdeen",香港仔石排灣道33號,22.2499706,114.1471207,,,,,1,,448,Hong Kong,Southern
00000000-0000-0000-0000000001c1,P949,One Causeway Bay,港島壹號中心,"281 Gloucester Road, Causeway Bay",銅鑼灣告士打道281號,22.2823001,114.1842903,9542-3949,,,,4,,449,Hong Kong,Causeway Bay
00000000-0000-0000-0000000001c2,P599S,Wonderland Villas (Southern),華景山莊 (南),"9 Wah King Hill Road, Lai King",荔景華景山道9號,22.3532988,114.1361182,5130-4199,,,,51,,450,New Territories,Kwai Tsing
00000000-0000-0000-0000000001c3,P599N,Wonderland Villas (Northern),華景山莊 (北),"9 Wah King Hill Road, Lai King",荔景華景山道9號,22.3536605,114.1361915,5130-4199,,,1410976.0,51,,451,New Territories,Kwai Tsing
00000000-0000-0000-0000000001c4,P954,GO PARK 2,GO PARK 2,"8 Hoi Ying Road, Sai Sha, New Territories",新界西沙海映路8號,22.4281994,114.266353,9162-7941 ,,,1414143.0,52,,452,New Territories,Tai Po
00000000-0000-0000-0000000001c5,P952,Pak Shing Kok Road Public Car Park,百勝角路公眾停車場,"1 Pak Shing Kok Road, Tseung Kwan O, New Territories",新界將軍澳百勝角路1號,22.30445,114.272749,9725-7952,,,,60,,453,New Territories,Pak Shing Kok
00000000-0000-0000-0000000001c6,P951,Heung Yuen Wai Boundary Control Point Public Car Park,香園圍邊境管制站公眾停車場,"Ta Kwu Ling, Northern District, New Territories",新界北區打鼓嶺,22.5519941,114.1511779,6112-3951,,,,97,,454,,Huangbei Sub-district
00000000-0000-0000-0000000001c7,P950,Cullinan Sky Mall,天璽•天Mall ,"10 Concorde Road, Kai Tak, Kowloon",九龍啟德協調道10號,22.3312456,114.1999202,5595-2950,,,1414119.0,98,,455,Kowloon,Kowloon City
00000000-0000-0000-0000000001c8,P953,Tseung Kwan O Government Offices Public Car Park,將軍澳政府合署公眾停車場,"30 Tong Yin Street, Tseung Kwan O, New Territories",新界將軍澳唐賢街30號,22.3033773,114.2574771,6468-7953 ,,,,60,,456,New Territories,Sai Kung
00000000-0000-0000-0000000001c9,P955,International Gateway Centre (IGC) ,International Gateway Centre (IGC) ,"1 Wui Man Road, Tsim Sha Tsui, West Kowloon",尖沙咀西九龍匯民道一號,22.3048993,114.1644995,6114-8995 ,,,,40,,457,Kowloon,Yau Ma Tei
00000000-0000-0000-0000000001cb,P330-loading-dock-2,HKIA Loading Dock 2,香港國際機場2號卸貨區," Hong Kong International Airport, Chek Lap Kok, Lantau Island", 大嶼山赤鱲角香港國際機場,22.3150281,113.9386746,2183-4360,,,,96,,459,New Territories,Chek Lap Kok
